[{"OBJECT_NAME":"NUSAT-45 (UZMASAT-1)","OBJECT_ID":"2025-009AH","EPOCH":"2026-03-09T03:44:32.024544","MEAN_MOTION":15.26632732,"ECCENTRICITY":0.00011721,"INCLINATION":97.3985,"RA_OF_ASC_NODE":150.3373,"ARG_OF_PERICENTER":1.4631,"MEAN_ANOMALY":358.6611,"EPHEMERIS_TYPE":0,"CLASSIFICATION_TYPE":"U","NORAD_CAT_ID":62640,"ELEMENT_SET_NO":999,"REV_AT_EPOCH":6363,"BSTAR":0.00048087023,"MEAN_MOTION_DOT":0.00012539,"MEAN_MOTION_DDOT":0},{"OBJECT_NAME":"STARLINK-36487","OBJECT_ID":"2026-005N","EPOCH":"2026-03-09T21:20:04.180128","MEAN_MOTION":15.27776317,"ECCENTRICITY":0.00037754,"INCLINATION":42.998,"RA_OF_ASC_NODE":237.1463,"ARG_OF_PERICENTER":297.1589,"MEAN_ANOMALY":62.8878,"EPHEMERIS_TYPE":0,"CLASSIFICATION_TYPE":"U","NORAD_CAT_ID":67416,"ELEMENT_SET_NO":999,"REV_AT_EPOCH":872,"BSTAR":-0.0089087085,"MEAN_MOTION_DOT":-0.0023917,"MEAN_MOTION_DDOT":0}]
